{"type": "FeatureCollection", "features": [ {"type": "Feature", "properties": {"norad_id": 37085, "name": "COSMOS 2251 DEB", "group": "cosmos-2251-debris", "lat": 63.85810055459905, "lon": -115.66470368183467, "alt_km": 419.5088191107143, "timestamp": "2025-12-16T05:49:09.610731+00:00", "meta": {"OBJECT_NAME": "COSMOS 2251 DEB", "OBJECT_ID": "1993-036BFF", "EPOCH": "2025-12-13T09:00:31.802112", "MEAN_MOTION": 15.41681601, "ECCENTRICITY": 0.00213151, "INCLINATION": 73.9479, "RA_OF_ASC_NODE": 214.6598, "ARG_OF_PERICENTER": 52.8263, "MEAN_ANOMALY": 307.4887, "EPHEMERIS_TYPE": 0, "CLASSIFICATION_TYPE": "U", "NORAD_CAT_ID": 37085, "ELEMENT_SET_NO": 999, "REV_AT_EPOCH": 67147, "BSTAR": 0.0024657072, "MEAN_MOTION_DOT": 0.00106285, "MEAN_MOTION_DDOT": 0}, "tle": {"line1": "1 37085U 93036BFF 25347.37536808  .00106285  00000+0  24657-2 0  9992", "line2": "2 37085  73.9479 214.6598 0021315  52.8263 307.4887 15.41681601671472"}}, "geometry": {"type": "Point", "coordinates": [-115.66470368183467, 63.85810055459905]}}, {"type": "Feature", "properties": {"norad_id": 37089, "name": "COSMOS 2251 DEB", "group": "cosmos-2251-debris", "lat": 11.600657923017907, "lon": -44.23445943516954, "alt_km": 684.0734179246683, "timestamp": "2025-12-16T05:49:09.610741+00:00", "meta": {"OBJECT_NAME": "COSMOS 2251 DEB", "OBJECT_ID": "1993-036BFK", "EPOCH": "2025-12-15T02:35:52.652256", "MEAN_MOTION": 14.5300115, "ECCENTRICITY": 0.01350597, "INCLINATION": 74.0363, "RA_OF_ASC_NODE": 141.2743, "ARG_OF_PERICENTER": 240.987, "MEAN_ANOMALY": 117.7703, "EPHEMERIS_TYPE": 0, "CLASSIFICATION_TYPE": "U", "NORAD_CAT_ID": 37089, "ELEMENT_SET_NO": 999, "REV_AT_EPOCH": 66144, "BSTAR": 0.0016025339, "MEAN_MOTION_DOT": 7.435e-05, "MEAN_MOTION_DDOT": 0}, "tle": {"line1": "1 37089U 93036BFK 25349.10824829  .00007435  00000+0  16025-2 0  9999", "line2": "2 37089  74.0363 141.2743 0135059 240.9870 117.7703 14.53001150661444"}}, "geometry": {"type": "Point", "coordinates": [-44.23445943516954, 11.600657923017907]}}, {"type": "Feature", "properties": {"norad_id": 37094, "name": "COSMOS 2251 DEB", "group": "cosmos-2251-debris", "lat": 68.55223285952971, "lon": -111.73501949143638, "alt_km": 703.9371075350009, "timestamp": "2025-12-16T05:49:09.610750+00:00", "meta": {"OBJECT_NAME": "COSMOS 2251 DEB", "OBJECT_ID": "1993-036BFQ", "EPOCH": "2025-12-10T15:45:11.030688", "MEAN_MOTION": 14.37808892, "ECCENTRICITY": 0.0084108, "INCLINATION": 74.1091, "RA_OF_ASC_NODE": 124.9809, "ARG_OF_PERICENTER": 91.4784, "MEAN_ANOMALY": 269.6007, "EPHEMERIS_TYPE": 0, "CLASSIFICATION_TYPE": "U", "NORAD_CAT_ID": 37094, "ELEMENT_SET_NO": 999, "REV_AT_EPOCH": 84476, "BSTAR": 0.0015212, "MEAN_MOTION_DOT": 4.753e-05, "MEAN_MOTION_DDOT": 0}, "tle": {"line1": "1 37094U 93036BFQ 25344.65637767  .00004753  00000+0  15212-2 0  9990", "line2": "2 37094  74.1091 124.9809 0084108  91.4784 269.6007 14.37808892844763"}}, "geometry": {"type": "Point", "coordinates": [-111.73501949143638, 68.55223285952971]}}, {"type": "Feature", "properties": {"norad_id": 37095, "name": "COSMOS 2251 DEB", "group": "cosmos-2251-debris", "lat": -36.879811954079955, "lon": 171.18329725345055, "alt_km": 861.8893358025498, "timestamp": "2025-12-16T05:49:09.610761+00:00", "meta": {"OBJECT_NAME": "COSMOS 2251 DEB", "OBJECT_ID": "1993-036BFR", "EPOCH": "2025-12-14T06:06:08.543520", "MEAN_MOTION": 14.03409585, "ECCENTRICITY": 0.019488, "INCLINATION": 73.8479, "RA_OF_ASC_NODE": 187.2421, "ARG_OF_PERICENTER": 244.7942, "MEAN_ANOMALY": 113.2877, "EPHEMERIS_TYPE": 0, "CLASSIFICATION_TYPE": "U", "NORAD_CAT_ID": 37095, "ELEMENT_SET_NO": 999, "REV_AT_EPOCH": 62657, "BSTAR": 0.0017117328, "MEAN_MOTION_DOT": 3.142e-05, "MEAN_MOTION_DDOT": 0}, "tle": {"line1": "1 37095U 93036BFR 25348.25426555  .00003142  00000+0  17117-2 0  9999", "line2": "2 37095  73.8479 187.2421 0194880 244.7942 113.2877 14.03409585626575"}}, "geometry": {"type": "Point", "coordinates": [171.18329725345055, -36.879811954079955]}}, {"type": "Feature", "properties": {"norad_id": 37108, "name": "COSMOS 2251 DEB", "group": "cosmos-2251-debris", "lat": 57.17555595537008, "lon": -132.24864270761495, "alt_km": 692.3529440127941, "timestamp": "2025-12-16T05:49:09.610771+00:00", "meta": {"OBJECT_NAME": "COSMOS 2251 DEB", "OBJECT_ID": "1993-036BGE", "EPOCH": "2025-12-15T22:36:21.191616", "MEAN_MOTION": 14.41329864, "ECCENTRICITY": 0.00910382, "INCLINATION": 74.0449, "RA_OF_ASC_NODE": 74.6348, "ARG_OF_PERICENTER": 150.5001, "MEAN_ANOMALY": 210.1338, "EPHEMERIS_TYPE": 0, "CLASSIFICATION_TYPE": "U", "NORAD_CAT_ID": 37108, "ELEMENT_SET_NO": 999, "REV_AT_EPOCH": 85553, "BSTAR": 0.0008296536, "MEAN_MOTION_DOT": 2.794e-05, "MEAN_MOTION_DDOT": 0}, "tle": {"line1": "1 37108U 93036BGE 25349.94191194  .00002794  00000+0  82965-3 0  9995", "line2": "2 37108  74.0449  74.6348 0091038 150.5001 210.1338 14.41329864855530"}}, "geometry": {"type": "Point", "coordinates": [-132.24864270761495, 57.17555595537008]}}, {"type": "Feature", "properties": {"norad_id": 37126, "name": "COSMOS 2251 DEB", "group": "cosmos-2251-debris", "lat": 54.65062692687571, "lon": 11.608702393514259, "alt_km": 729.9507646954507, "timestamp": "2025-12-16T05:49:09.610780+00:00", "meta": {"OBJECT_NAME": "COSMOS 2251 DEB", "OBJECT_ID": "1993-036BGY", "EPOCH": "2025-12-15T06:43:54.416352", "MEAN_MOTION": 14.73082746, "ECCENTRICITY": 0.01230943, "INCLINATION": 73.9533, "RA_OF_ASC_NODE": 349.5533, "ARG_OF_PERICENTER": 227.1861, "MEAN_ANOMALY": 131.8915, "EPHEMERIS_TYPE": 0, "CLASSIFICATION_TYPE": "U", "NORAD_CAT_ID": 37126, "ELEMENT_SET_NO": 999, "REV_AT_EPOCH": 8136, "BSTAR": 0.00020663432, "MEAN_MOTION_DOT": 1.461e-05, "MEAN_MOTION_DDOT": 0}, "tle": {"line1": "1 37126U 93036BGY 25349.28049093  .00001461  00000+0  20663-3 0  9999", "line2": "2 37126  73.9533 349.5533 0123094 227.1861 131.8915 14.73082746 81367"}}, "geometry": {"type": "Point", "coordinates": [11.608702393514259, 54.65062692687571]}}, {"type": "Feature", "properties": {"norad_id": 37132, "name": "COSMOS 2251 DEB", "group": "cosmos-2251-debris", "lat": 7.329953082196061, "lon": 45.037057550985814, "alt_km": 661.9318419439342, "timestamp": "2025-12-16T05:49:09.610790+00:00", "meta": {"OBJECT_NAME": "COSMOS 2251 DEB", "OBJECT_ID": "1993-036BHE", "EPOCH": "2025-12-15T09:32:55.769280", "MEAN_MOTION": 14.77873409, "ECCENTRICITY": 0.00399597, "INCLINATION": 74.0031, "RA_OF_ASC_NODE": 228.8126, "ARG_OF_PERICENTER": 24.0962, "MEAN_ANOMALY": 336.207, "EPHEMERIS_TYPE": 0, "CLASSIFICATION_TYPE": "U", "NORAD_CAT_ID": 37132, "ELEMENT_SET_NO": 999, "REV_AT_EPOCH": 62455, "BSTAR": 0.00059917342, "MEAN_MOTION_DOT": 4.336e-05, "MEAN_MOTION_DDOT": 0}, "tle": {"line1": "1 37132U 93036BHE 25349.39786770  .00004336  00000+0  59917-3 0  9996", "line2": "2 37132  74.0031 228.8126 0039959  24.0962 336.2070 14.77873409624553"}}, "geometry": {"type": "Point", "coordinates": [45.037057550985814, 7.329953082196061]}}, {"type": "Feature", "properties": {"norad_id": 37270, "name": "COSMOS 2251 DEB", "group": "cosmos-2251-debris", "lat": -72.5464488318548, "lon": -96.21708773454236, "alt_km": 906.4437008957584, "timestamp": "2025-12-16T05:49:09.610800+00:00", "meta": {"OBJECT_NAME": "COSMOS 2251 DEB", "OBJECT_ID": "1993-036BHJ", "EPOCH": "2025-12-12T22:45:06.098400", "MEAN_MOTION": 13.59808663, "ECCENTRICITY": 0.03985351, "INCLINATION": 73.9378, "RA_OF_ASC_NODE": 335.5481, "ARG_OF_PERICENTER": 347.3958, "MEAN_ANOMALY": 11.7404, "EPHEMERIS_TYPE": 0, "CLASSIFICATION_TYPE": "U", "NORAD_CAT_ID": 37270, "ELEMENT_SET_NO": 999, "REV_AT_EPOCH": 77072, "BSTAR": 0.0064936549, "MEAN_MOTION_DOT": 8.148e-05, "MEAN_MOTION_DDOT": 0}, "tle": {"line1": "1 37270U 93036BHJ 25346.94798725  .00008148  00000+0  64937-2 0  9992", "line2": "2 37270  73.9378 335.5481 0398535 347.3958  11.7404 13.59808663770728"}}, "geometry": {"type": "Point", "coordinates": [-96.21708773454236, -72.5464488318548]}}, {"type": "Feature", "properties": {"norad_id": 37278, "name": "COSMOS 2251 DEB", "group": "cosmos-2251-debris", "lat": -67.46363976046993, "lon": -61.535839036051115, "alt_km": 955.2014803928832, "timestamp": "2025-12-16T05:49:09.610811+00:00", "meta": {"OBJECT_NAME": "COSMOS 2251 DEB", "OBJECT_ID": "1993-036BHS", "EPOCH": "2025-12-04T09:26:36.152736", "MEAN_MOTION": 14.15029915, "ECCENTRICITY": 0.029998, "INCLINATION": 73.7864, "RA_OF_ASC_NODE": 4.3592, "ARG_OF_PERICENTER": 188.2556, "MEAN_ANOMALY": 234.4903, "EPHEMERIS_TYPE": 0, "CLASSIFICATION_TYPE": "U", "NORAD_CAT_ID": 37278, "ELEMENT_SET_NO": 999, "REV_AT_EPOCH": 63711, "BSTAR": 0.0023061, "MEAN_MOTION_DOT": 6.884e-05, "MEAN_MOTION_DDOT": 0}, "tle": {"line1": "1 37278U 93036BHS 25338.39347399  .00006884  00000+0  23061-2 0  9995", "line2": "2 37278  73.7864   4.3592 0299980 188.2556 234.4903 14.15029915637119"}}, "geometry": {"type": "Point", "coordinates": [-61.535839036051115, -67.46363976046993]}}, {"type": "Feature", "properties": {"norad_id": 37280, "name": "COSMOS 2251 DEB", "group": "cosmos-2251-debris", "lat": -68.5943496631096, "lon": 3.888162503234443, "alt_km": 859.0004994779547, "timestamp": "2025-12-16T05:49:09.610820+00:00", "meta": {"OBJECT_NAME": "COSMOS 2251 DEB", "OBJECT_ID": "1993-036BHU", "EPOCH": "2025-12-14T22:02:27.434112", "MEAN_MOTION": 14.19330541, "ECCENTRICITY": 0.01308275, "INCLINATION": 74.0321, "RA_OF_ASC_NODE": 53.1735, "ARG_OF_PERICENTER": 181.3662, "MEAN_ANOMALY": 178.7145, "EPHEMERIS_TYPE": 0, "CLASSIFICATION_TYPE": "U", "NORAD_CAT_ID": 37280, "ELEMENT_SET_NO": 999, "REV_AT_EPOCH": 57354, "BSTAR": 0.00096264954, "MEAN_MOTION_DOT": 2.177e-05, "MEAN_MOTION_DDOT": 0}, "tle": {"line1": "1 37280U 93036BHU 25348.91837308  .00002177  00000+0  96265-3 0  9999", "line2": "2 37280  74.0321  53.1735 0130827 181.3662 178.7145 14.19330541573549"}}, "geometry": {"type": "Point", "coordinates": [3.888162503234443, -68.5943496631096]}}]}